73P-V/Schwassmann-Wachmann,e,11.651,65.236,204.943,2.97417,0.192156,0.6933024,359.908,06/08.0/2006,2000,g  9.0,4.0
# From MPC 56797
73P-W/Schwassmann-Wachmann,e,11.390,69.884,198.803,3.06185,0.183962,0.6933024,359.908,06/08.0/2006,2000,g  9.0,4.0
# From MPC 56798
73P-X/Schwassmann-Wachmann,e,11.388,69.900,198.778,3.06207,0.183942,0.6933024,359.896,06/08.0/2006,2000,g  9.0,4.0
# From MPC 56798
73P-Y/Schwassmann-Wachmann,e,11.391,69.879,198.785,3.06200,0.183948,0.6933024,359.858,06/08.0/2006,2000,g  9.0,4.0
# From MPC 56798
73P-Z/Schwassmann-Wachmann,e,11.349,70.493,198.017,3.07155,0.183091,0.6933024,359.943,06/08.0/2006,2000,g  9.0,4.0
# From MPC 56798
73P-AA/Schwassmann-Wachmann,e,11.390,69.883,198.804,3.06182,0.183965,0.6933024,359.984,06/09.0/2006,2000,g  9.0,4.0
# From MPC 56798
73P-AB/Schwassmann-Wachmann,e,11.390,69.888,198.792,3.06183,0.183964,0.6933024,359.872,06/08.0/2006,2000,g  9.0,4.0
# From MPC 56798
73P-AC/Schwassmann-Wachmann,e,11.387,69.914,198.766,3.06223,0.183927,0.6933024,359.872,06/08.0/2006,2000,g  9.0,4.0
# From MPC 56798
73P-AD/Schwassmann-Wachmann,e,11.355,70.416,198.119,3.07035,0.183198,0.6933024,359.873,06/08.0/2006,2000,g  9.0,4.0
# From MPC 56798
73P-AE/Schwassmann-Wachmann,e,11.390,69.891,198.790,3.06196,0.183952,0.6933024,359.935,06/08.0/2006,2000,g  9.0,4.0
# From MPC 56798
73P-AF/Schwassmann-Wachmann,e,11.356,70.302,198.217,3.06961,0.183265,0.6933024,359.846,06/06.0/2006,2000,g  9.0,4.0
# From MPC 56798
73P-AG/Schwassmann-Wachmann,e,11.386,69.932,198.724,3.06233,0.183919,0.6933024,359.997,06/09.0/2006,2000,g  9.0,4.0
# From MPC 56798
73P-AH/Schwassmann-Wachmann,e,11.331,70.695,197.755,3.07445,0.182832,0.6933024,359.885,06/08.0/2006,2000,g  9.0,4.0
# From MPC 56798
73P-AI/Schwassmann-Wachmann,e,11.392,69.885,198.806,3.06205,0.183944,0.6933024,359.864,06/08.0/2006,2000,g  9.0,4.0
# From MPC 56799
73P-AJ/Schwassmann-Wachmann,e,11.385,70.041,198.663,3.06262,0.183892,0.6933024,359.864,06/08.0/2006,2000,g  9.0,4.0
# From MPC 56799
73P-AK/Schwassmann-Wachmann,e,11.389,69.784,198.822,3.06244,0.183909,0.6933024,359.927,06/08.0/2006,2000,g  9.0,4.0
# From MPC 56799
73P-AL/Schwassmann-Wachmann,e,11.395,69.843,198.857,3.06140,0.184003,0.6933024,359.916,06/08.0/2006,2000,g  9.0,4.0
# From MPC 56799
73P-AM/Schwassmann-Wachmann,e,11.394,69.876,198.815,3.06205,0.183944,0.6933024,359.951,06/08.0/2006,2000,g  9.0,4.0
# From MPC 56799
73P-AN/Schwassmann-Wachmann,e,11.393,69.870,198.820,3.06185,0.183962,0.6933024,359.940,06/08.0/2006,2000,g  9.0,4.0
# From MPC 56799
73P-AO/Schwassmann-Wachmann,e,11.210,71.286,197.007,3.07823,0.182496,0.6933024,359.853,06/07.0/2006,2000,g  9.0,4.0
# From MPC 56799
73P-AP/Schwassmann-Wachmann,e,11.393,69.895,198.794,3.06223,0.183928,0.6933024,359.874,06/06.0/2006,2000,g  9.0,4.0
# From MPC 56799
73P-AQ/Schwassmann-Wachmann,e,11.387,69.911,198.770,3.06230,0.183921,0.6933024,359.831,06/07.0/2006,2000,g  9.0,4.0
# From MPC 56799
73P-AR/Schwassmann-Wachmann,e,11.385,69.946,198.722,3.06285,0.183872,0.6933024,359.847,06/06.0/2006,2000,g  9.0,4.0
# From MPC 56799
73P-AS/Schwassmann-Wachmann,e,11.392,69.906,198.773,3.06237,0.183915,0.6933024,359.938,06/06.0/2006,2000,g  9.0,4.0
# From MPC 56799
73P-AT/Schwassmann-Wachmann,e,11.391,69.901,198.778,3.06248,0.183905,0.6933024,359.958,06/06.0/2006,2000,g  9.0,4.0
# From MPC 56799
73P-AU/Schwassmann-Wachmann,e,11.385,69.928,198.744,3.06261,0.183894,0.6933024,359.983,06/08.0/2006,2000,g  9.0,4.0
# From MPC 56800
73P-AV/Schwassmann-Wachmann,e,11.388,69.945,198.751,3.06263,0.183892,0.6933024,359.910,06/06.0/2006,2000,g  9.0,4.0
# From MPC 56800
73P-AW/Schwassmann-Wachmann,e,11.377,69.982,198.673,3.06318,0.183843,0.6933024,359.859,06/07.0/2006,2000,g  9.0,4.0
# From MPC 56800
73P-AX/Schwassmann-Wachmann,e,11.388,69.915,198.757,3.06205,0.183944,0.6933024,359.902,06/09.0/2006,2000,g  9.0,4.0
# From MPC 56800
73P-AY/Schwassmann-Wachmann,e,11.385,69.923,198.750,3.06223,0.183927,0.6933024,359.860,06/08.0/2006,2000,g  9.0,4.0
# From MPC 56800
73P-AZ/Schwassmann-Wachmann,e,11.371,70.002,198.644,3.06367,0.183798,0.6933024,359.905,06/06.0/2006,2000,g  9.0,4.0
# From MPC 56800
73P-BA/Schwassmann-Wachmann,e,11.364,70.042,198.588,3.06413,0.183756,0.6933024,359.920,06/06.0/2006,2000,g  9.0,4.0
# From MPC 56800
73P-BB/Schwassmann-Wachmann,e,11.395,69.882,198.807,3.06205,0.183944,0.6933024,359.984,06/07.0/2006,2000,g  9.0,4.0
# From MPC 56800
73P-BC/Schwassmann-Wachmann,e,11.391,69.901,198.778,3.06235,0.183917,0.6933024,359.877,06/06.0/2006,2000,g  9.0,4.0
# From MPC 56800
73P-BD/Schwassmann-Wachmann,e,11.352,70.085,198.503,3.06483,0.183694,0.6933024,359.923,06/06.0/2006,2000,g  9.0,4.0
# From MPC 56800
73P-BE/Schwassmann-Wachmann,e,11.405,69.841,198.861,3.06171,0.183975,0.6933024,359.841,06/06.0/2006,2000,g  9.0,4.0
# From MPC 56800
73P-BF/Schwassmann-Wachmann,e,11.390,69.908,198.752,3.06223,0.183928,0.6933024,359.818,06/06.0/2006,2000,g  9.0,4.0
# From MPC 56800
73P-BG/Schwassmann-Wachmann,e,11.384,69.925,198.750,3.06214,0.183936,0.6933024,359.864,06/08.0/2006,2000,g  9.0,4.0
# From MPC 56801
73P-BH/Schwassmann-Wachmann,e,11.410,69.752,198.947,3.06079,0.184058,0.6933024,359.895,06/08.0/2006,2000,g  9.0,4.0
# From MPC 56801
73P-BI/Schwassmann-Wachmann,e,11.404,69.819,198.877,3.06179,0.183967,0.6933024,359.882,06/08.0/2006,2000,g  9.0,4.0
# From MPC 56801
73P-BJ/Schwassmann-Wachmann,e,11.389,69.905,198.776,3.06209,0.183941,0.6933024,359.877,06/08.0/2006,2000,g  9.0,4.0
# From MPC 56801
73P-BK/Schwassmann-Wachmann,e,11.379,69.970,198.698,3.06264,0.183891,0.6933024,359.837,06/08.0/2006,2000,g  9.0,4.0
# From MPC 56801
73P-BL/Schwassmann-Wachmann,e,11.385,69.930,198.739,3.06239,0.183914,0.6933024,359.837,06/08.0/2006,2000,g  9.0,4.0
# From MPC 56801
73P-BM/Schwassmann-Wachmann,e,11.364,70.086,198.546,3.06367,0.183798,0.6933024,359.827,06/08.0/2006,2000,g  9.0,4.0
# From MPC 56801
73P-BN/Schwassmann-Wachmann,e,11.398,69.871,198.815,3.06180,0.183967,0.6933024,359.963,06/08.0/2006,2000,g  9.0,4.0
# From MPC 56801
73P-BO/Schwassmann-Wachmann,e,11.390,69.903,198.765,3.06206,0.183943,0.6933024,359.952,06/08.0/2006,2000,g  9.0,4.0
# From MPC 56801
73P-BP/Schwassmann-Wachmann,e,11.395,69.881,198.807,3.06196,0.183952,0.6933024,359.944,06/08.0/2006,2000,g  9.0,4.0
# From MPC 56801
73P-BQ/Schwassmann-Wachmann,e,11.404,69.836,198.862,3.06166,0.183979,0.6933024,359.945,06/08.0/2006,2000,g  9.0,4.0
# From MPC 56957
73P-BR/Schwassmann-Wachmann,e,11.389,69.910,198.774,3.06233,0.183918,0.6933024,359.971,06/06.0/2006,2000,g  9.0,4.0
# From MPC 56957
73P-BS/Schwassmann-Wachmann,e,11.399,69.885,198.814,3.06224,0.183927,0.6933024,359.847,06/05.0/2006,2000,g  9.0,4.0
# From MPC106348
73P-BT/Schwassmann-Wachmann,e,10.7971,195.2276,73.2139,3.073263,0.1829382,0.69629331,169.7690,03/17.0/2025,2000,g 11.5,6.0
# From MPEC 2022-P18
73P-BU/Schwassmann-Wachmann,e,10.9272,198.2145,72.0418,2.862440,0.2035164,0.67426827,189.3147,03/17.0/2025,2000,g 19.0,4.0
# From MPEC 2022-X67
73P-BV/Schwassmann-Wachmann,e,9.2984,66.3960,200.6115,3.070605,0.1831758,0.72520993,169.3893,03/17.0/2025,2000,g 19.0,4.0
# From MPEC 2022-R15
73P-BW/Schwassmann-Wachmann,e,10.2102,193.1590,71.5565,4.529426,0.1022443,0.78679860,95.6755,03/17.0/2025,2000,g 18.2,4.0
# From MPEC 2023-A50
73P-BX/Schwassmann-Wachmann,e,9.4033,66.4514,200.7684,3.051936,0.1848591,0.72386644,170.2792,03/17.0/2025,2000,g 17.5,4.0
# From MPEC 2022-R15
73P-BY/Schwassmann-Wachmann,e,10.8552,195.9394,72.7581,3.015145,0.1882529,0.69048373,175.1404,03/17.0/2025,2000,g 17.4,4.0
# From MPEC 2025-CE3
74P/Smirnova-Chernykh,e,6.2690,53.4017,75.6902,5.001513,0.0881154,0.03781812,309.5562,03/17.0/2025,2000,g  5.0,6.0
# From CCO 7
75D/Kohoutek,e,5.9270,269.5528,175.5813,3.536766,0.1481817,0.49952049,217.6869,03/17.0/2025,2000,g  9.5,6.0
# From MPEC 2022-K19
76P/West-Kohoutek-Ikemura,e,30.4889,84.1124,359.9961,3.467583,0.1526384,0.53945298,300.0822,03/17.0/2025,2000,g  8.0,12.0
# From MPEC 2024-UA9
77P/Longmore,e,24.3232,14.7518,196.6277,3.620655,0.1430617,0.35173762,102.1725,03/17.0/2025,2000,g  7.0,8.0
# From MPEC 2025-A40
78P/Gehrels,e,6.2571,210.5075,192.7486,3.734041,0.1365952,0.46310821,296.4715,03/17.0/2025,2000,g  5.5,8.0
# From MPEC 2024-PC5
79P/duToit-Hartley,e,3.1489,280.5131,281.7529,2.942727,0.1952446,0.61927746,104.1991,03/17.0/2025,2000,g 16.0,4.0
# From MPEC 2024-Q20
80P/Peters-Hartley,e,29.9264,259.7737,339.2796,4.021911,0.1221956,0.59777784,101.3817,03/17.0/2025,2000,g  9.0,8.0
# From MPEC 2024-RQ6
81P/Wild,e,3.2379,136.0973,41.5534,3.451692,0.1536937,0.53756221,126.3790,03/17.0/2025,2000,g  7.0,6.0
# From MPC133426
82P/Gehrels,e,1.1294,239.2168,226.4807,4.131799,0.1173533,0.12277720,288.5293,03/17.0/2025,2000,g 15.0,4.0
# From NK 932
83D/Russell,e,17.8298,226.2979,334.3858,3.843395,0.1308072,0.44138754,182.5069,03/17.0/2025,2000,g  9.0,4.0
# From MPEC 2020-FB5
84P/Giclas,e,7.5526,108.1429,281.6829,3.550103,0.1473475,0.51578741,257.2185,03/17.0/2025,2000,g  9.5,8.0
# From unp
85D/Boethin,e,4.1734,65.2922,333.0908,5.045994,0.0869529,0.77598403,147.0006,03/17.0/2025,2000,g  6.5,8.0
# From MPEC 2022-YB4
86P/Wild,e,15.5191,72.0917,181.0602,3.643216,0.1417349,0.36407780,161.1800,03/17.0/2025,2000,g 11.0,6.0
# From MPEC 2020-SI8
87P/Bus,e,2.6747,185.2836,51.8983,4.349138,0.1086674,0.21945202,199.7182,03/17.0/2025,2000,g  7.2,10.0
# From MPEC 2025-EG2
88P/Howell,e,4.3820,56.6684,235.8854,3.108222,0.1798606,0.56319533,294.0256,03/17.0/2025,2000,g 11.0,6.0
# From MPEC 2025-DP4
89P/Russell,e,12.0721,41.3444,250.4102,3.750600,0.1356916,0.40753165,48.2253,03/17.0/2025,2000,g 11.5,6.0
# From MPEC 2022-K19
90P/Gehrels,e,9.6409,13.1925,29.1771,6.053692,0.0661719,0.51075595,186.7970,03/17.0/2025,2000,g  8.5,6.0
# From MPEC 2023-VM5
91P/Russell,e,16.3277,242.5675,357.6576,4.121796,0.1177808,0.26146915,205.3290,03/17.0/2025,2000,g  7.5,6.0
# From MPEC 2014-J58
92P/Sanguin,e,19.4815,181.3662,163.7867,5.343870,0.0797848,0.66010909,292.1542,03/17.0/2025,2000,g 12.0,6.0
# From MPEC 2024-R10
